[{"OBJECT_NAME":"STARLINK-32717","OBJECT_ID":"2025-003E","EPOCH":"2026-03-09T22:54:16.037856","MEAN_MOTION":15.27607852,"ECCENTRICITY":0.00010326,"INCLINATION":42.9971,"RA_OF_ASC_NODE":287.3395,"ARG_OF_PERICENTER":277.3665,"MEAN_ANOMALY":82.7069,"EPHEMERIS_TYPE":0,"CLASSIFICATION_TYPE":"U","NORAD_CAT_ID":62491,"ELEMENT_SET_NO":999,"REV_AT_EPOCH":6671,"BSTAR":0.0012106883,"MEAN_MOTION_DOT":0.00033232,"MEAN_MOTION_DDOT":0},{"OBJECT_NAME":"239ALFEROV (RS61S)","OBJECT_ID":"2025-155F","EPOCH":"2026-03-09T21:46:33.382848","MEAN_MOTION":15.29933217,"ECCENTRICITY":0.00084878,"INCLINATION":97.4469,"RA_OF_ASC_NODE":37.6373,"ARG_OF_PERICENTER":151.5904,"MEAN_ANOMALY":208.58,"EPHEMERIS_TYPE":0,"CLASSIFICATION_TYPE":"U","NORAD_CAT_ID":64881,"ELEMENT_SET_NO":999,"REV_AT_EPOCH":6561,"BSTAR":0.00067233359,"MEAN_MOTION_DOT":0.00019457,"MEAN_MOTION_DDOT":0}]
